start=new Date('2022-11-30T00:00:00.000Z').valueOf();
sats=[{"RA_OF_ASC_NODE":"307.6385","MEAN_MOTION":"15.73142239","ARG_OF_PERICENTER":"13.7253","PERIAPSIS":"347.852","SITE":"AFETR","REV_AT_EPOCH":"130","TLE_LINE1":"1 54060U 22136K   22333.91667824  .00063838  00000-0  45687-3 0  9996","GP_ID":"219113934","TLE_LINE2":"2 54060  53.2150 307.6385 0003081  13.7253  25.5679 15.73142239  1303","LAUNCH_DATE":"2022-10-20","MEAN_MOTION_DDOT":"0.0000000000000","INCLINATION":"53.2150","RCS_SIZE":"LARGE","REF_FRAME":"TEME","OBJECT_ID":"2022-136K","MEAN_ELEMENT_THEORY":"SGP4","MEAN_MOTION_DOT":"0.00063838","EPOCH":"2022-11-29T22:00:00.999936","APOAPSIS":"351.998","COUNTRY_CODE":"US","CLASSIFICATION_TYPE":"U","OBJECT_TYPE":"PAYLOAD","BSTAR":"0.00045687000000","TIME_SYSTEM":"UTC","NORAD_CAT_ID":"54060","FILE":"3673849","DECAY_DATE":null,"ECCENTRICITY":"0.00030810","ELEMENT_SET_NO":"999","CENTER_NAME":"EARTH","PERIOD":"91.537","OBJECT_NAME":"STARLINK-5169","MEAN_ANOMALY":"25.5679","EPHEMERIS_TYPE":"0","SEMIMAJOR_AXIS":"6728.060"},{"MEAN_MOTION_DDOT":"0.0000000000000","INCLINATION":"53.2158","LAUNCH_DATE":"2022-10-20","RCS_SIZE":"LARGE","REF_FRAME":"TEME","OBJECT_ID":"2022-136L","EPOCH":"2022-11-29T22:00:00.999936","MEAN_ELEMENT_THEORY":"SGP4","MEAN_MOTION_DOT":"-0.00031207","APOAPSIS":"350.490","COUNTRY_CODE":"US","RA_OF_ASC_NODE":"306.1673","ARG_OF_PERICENTER":"56.7033","MEAN_MOTION":"15.73276624","PERIAPSIS":"348.594","SITE":"AFETR","REV_AT_EPOCH":"130","TLE_LINE1":"1 54061U 22136L   22333.91667824 -.00031207  00000-0 -21803-3 0  9998","TLE_LINE2":"2 54061  53.2158 306.1673 0001409  56.7033 346.9096 15.73276624  1300","GP_ID":"219113761","ELEMENT_SET_NO":"999","CENTER_NAME":"EARTH","PERIOD":"91.529","OBJECT_NAME":"STARLINK-5209","EPHEMERIS_TYPE":"0","MEAN_ANOMALY":"346.9096","SEMIMAJOR_AXIS":"6727.677","CLASSIFICATION_TYPE":"U","BSTAR":"-0.00021803000000","OBJECT_TYPE":"PAYLOAD","TIME_SYSTEM":"UTC","FILE":"3673849","NORAD_CAT_ID":"54061","DECAY_DATE":null,"ECCENTRICITY":"0.00014090"},{"GP_ID":"219114628","TLE_LINE2":"2 54062  53.2170 312.4799 0002214 142.1702  17.8608 15.25038150  1302","TLE_LINE1":"1 54062U 22136M   22333.91667824 -.00972317  00000-0 -41603-1 0  9993","REV_AT_EPOCH":"130","SITE":"AFETR","PERIAPSIS":"489.152","ARG_OF_PERICENTER":"142.1702","MEAN_MOTION":"15.25038150","RA_OF_ASC_NODE":"312.4799","COUNTRY_CODE":"US","APOAPSIS":"492.194","MEAN_MOTION_DOT":"-0.00972317","MEAN_ELEMENT_THEORY":"SGP4","EPOCH":"2022-11-29T22:00:00.999936","OBJECT_ID":"2022-136M","REF_FRAME":"TEME","RCS_SIZE":"LARGE","LAUNCH_DATE":"2022-10-20","INCLINATION":"53.2170","MEAN_MOTION_DDOT":"0.0000000000000","ECCENTRICITY":"0.00022140","DECAY_DATE":null,"FILE":"3673849","NORAD_CAT_ID":"54062","TIME_SYSTEM":"UTC","BSTAR":"-0.04160300000000","OBJECT_TYPE":"PAYLOAD","CLASSIFICATION_TYPE":"U","SEMIMAJOR_AXIS":"6868.808","EPHEMERIS_TYPE":"0","MEAN_ANOMALY":"17.8608","OBJECT_NAME":"STARLINK-5170","PERIOD":"94.424","CENTER_NAME":"EARTH","ELEMENT_SET_NO":"999"},{"SEMIMAJOR_AXIS":"6867.324","MEAN_ANOMALY":"132.5241","EPHEMERIS_TYPE":"0","PERIOD":"94.393","OBJECT_NAME":"STARLINK-5225","ELEMENT_SET_NO":"999","CENTER_NAME":"EARTH","DECAY_DATE":null,"ECCENTRICITY":"0.00019190","TIME_SYSTEM":"UTC","FILE":"3673849","NORAD_CAT_ID":"54063","BSTAR":"-0.05224200000000","OBJECT_TYPE":"PAYLOAD","CLASSIFICATION_TYPE":"U","APOAPSIS":"490.507","COUNTRY_CODE":"US","OBJECT_ID":"2022-136N","MEAN_MOTION_DOT":"-0.01231559","MEAN_ELEMENT_THEORY":"SGP4","EPOCH":"2022-11-29T22:00:00.999936","RCS_SIZE":"LARGE","REF_FRAME":"TEME","LAUNCH_DATE":"2022-10-20","MEAN_MOTION_DDOT":"0.0000000000000","INCLINATION":"53.2169","TLE_LINE1":"1 54063U 22136N   22333.91667824 -.01231559  00000-0 -52242-1 0  9992","GP_ID":"219114456","TLE_LINE2":"2 54063  53.2169 312.4549 0001919  40.1400 132.5241 15.25532441  1307","REV_AT_EPOCH":"130","PERIAPSIS":"487.871","SITE":"AFETR","RA_OF_ASC_NODE":"312.4549","ARG_OF_PERICENTER":"40.1400","MEAN_MOTION":"15.25532441"},{"ELEMENT_SET_NO":"999","CENTER_NAME":"EARTH","PERIOD":"91.536","OBJECT_NAME":"STARLINK-5172","MEAN_ANOMALY":"34.3063","EPHEMERIS_TYPE":"0","SEMIMAJOR_AXIS":"6728.009","CLASSIFICATION_TYPE":"U","OBJECT_TYPE":"PAYLOAD","BSTAR":"0.00059311000000","TIME_SYSTEM":"UTC","NORAD_CAT_ID":"54064","FILE":"3673849","DECAY_DATE":null,"ECCENTRICITY":"0.00039380","MEAN_MOTION_DDOT":"0.0000000000000","INCLINATION":"53.2148","LAUNCH_DATE":"2022-10-20","RCS_SIZE":"LARGE","REF_FRAME":"TEME","OBJECT_ID":"2022-136P","EPOCH":"2022-11-29T22:00:00.999936","MEAN_MOTION_DOT":"0.00083330","MEAN_ELEMENT_THEORY":"SGP4","APOAPSIS":"352.524","COUNTRY_CODE":"US","RA_OF_ASC_NODE":"308.3801","ARG_OF_PERICENTER":"3.7329","MEAN_MOTION":"15.73159943","PERIAPSIS":"347.225","SITE":"AFETR","REV_AT_EPOCH":"130","TLE_LINE1":"1 54064U 22136P   22333.91667824  .00083330  00000-0  59311-3 0  9998","TLE_LINE2":"2 54064  53.2148 308.3801 0003938   3.7329  34.3063 15.73159943  1304","GP_ID":"219113587"},{"REV_AT_EPOCH":"130","TLE_LINE2":"2 54065  53.2170 312.4058 0001740  26.9525 170.6941 15.26206334  1308","GP_ID":"219114108","TLE_LINE1":"1 54065U 22136Q   22333.91667824 -.01289702  00000-0 -53826-1 0  9996","ARG_OF_PERICENTER":"26.9525","MEAN_MOTION":"15.26206334","RA_OF_ASC_NODE":"312.4058","SITE":"AFETR","PERIAPSIS":"485.973","EPOCH":"2022-11-29T22:00:00.999936","MEAN_MOTION_DOT":"-0.01289702","MEAN_ELEMENT_THEORY":"SGP4","OBJECT_ID":"2022-136Q","COUNTRY_CODE":"US","APOAPSIS":"488.362","MEAN_MOTION_DDOT":"0.0000000000000","INCLINATION":"53.2170","LAUNCH_DATE":"2022-10-20","REF_FRAME":"TEME","RCS_SIZE":"LARGE","FILE":"3673849","NORAD_CAT_ID":"54065","TIME_SYSTEM":"UTC","ECCENTRICITY":"0.00017400","DECAY_DATE":null,"CLASSIFICATION_TYPE":"U","OBJECT_TYPE":"PAYLOAD","BSTAR":"-0.05382600000000","MEAN_ANOMALY":"170.6941","EPHEMERIS_TYPE":"0","SEMIMAJOR_AXIS":"6865.302","CENTER_NAME":"EARTH","ELEMENT_SET_NO":"999","OBJECT_NAME":"STARLINK-5187","PERIOD":"94.352"},{"PERIAPSIS":"486.912","SITE":"AFETR","RA_OF_ASC_NODE":"312.4299","ARG_OF_PERICENTER":"38.5836","MEAN_MOTION":"15.25839344","TLE_LINE1":"1 54066U 22136R   22333.91667824 -.01219656  00000-0 -51214-1 0  9997","GP_ID":"219114283","TLE_LINE2":"2 54066  53.2171 312.4299 0001975  38.5836 146.6567 15.25839344  1300","REV_AT_EPOCH":"130","RCS_SIZE":"LARGE","REF_FRAME":"TEME","LAUNCH_DATE":"2022-10-20","MEAN_MOTION_DDOT":"0.0000000000000","INCLINATION":"53.2171","APOAPSIS":"489.624","COUNTRY_CODE":"US","OBJECT_ID":"2022-136R","MEAN_ELEMENT_THEORY":"SGP4","MEAN_MOTION_DOT":"-0.01219656","EPOCH":"2022-11-29T22:00:00.999936","BSTAR":"-0.05121400000000","OBJECT_TYPE":"PAYLOAD","CLASSIFICATION_TYPE":"U","DECAY_DATE":null,"ECCENTRICITY":"0.00019750","TIME_SYSTEM":"UTC","FILE":"3673849","NORAD_CAT_ID":"54066","PERIOD":"94.374","OBJECT_NAME":"STARLINK-5151","ELEMENT_SET_NO":"999","CENTER_NAME":"EARTH","SEMIMAJOR_AXIS":"6866.403","MEAN_ANOMALY":"146.6567","EPHEMERIS_TYPE":"0"},{"REV_AT_EPOCH":"130","TLE_LINE1":"1 54067U 22136S   22333.91667824 -.01225110  00000-0 -49992-1 0  9990","GP_ID":"219114802","TLE_LINE2":"2 54067  53.2169 312.3577 0001901  39.4916 182.5927 15.26793127  1302","RA_OF_ASC_NODE":"312.3577","ARG_OF_PERICENTER":"39.4916","MEAN_MOTION":"15.26793127","PERIAPSIS":"484.104","SITE":"AFETR","OBJECT_ID":"2022-136S","MEAN_ELEMENT_THEORY":"SGP4","MEAN_MOTION_DOT":"-0.01225110","EPOCH":"2022-11-29T22:00:00.999936","APOAPSIS":"486.713","COUNTRY_CODE":"US","LAUNCH_DATE":"2022-10-20","INCLINATION":"53.2169","MEAN_MOTION_DDOT":"0.0000000000000","RCS_SIZE":"LARGE","REF_FRAME":"TEME","TIME_SYSTEM":"UTC","FILE":"3673849","NORAD_CAT_ID":"54067","DECAY_DATE":null,"ECCENTRICITY":"0.00019010","CLASSIFICATION_TYPE":"U","OBJECT_TYPE":"PAYLOAD","BSTAR":"-0.04999200000000","EPHEMERIS_TYPE":"0","MEAN_ANOMALY":"182.5927","SEMIMAJOR_AXIS":"6863.543","ELEMENT_SET_NO":"999","CENTER_NAME":"EARTH","PERIOD":"94.315","OBJECT_NAME":"STARLINK-5174"},{"RCS_SIZE":"LARGE","REF_FRAME":"TEME","MEAN_MOTION_DDOT":"0.0000000000000","INCLINATION":"53.2170","LAUNCH_DATE":"2022-10-20","APOAPSIS":"488.176","COUNTRY_CODE":"US","OBJECT_ID":"2022-136T","EPOCH":"2022-11-29T22:00:00.999936","MEAN_MOTION_DOT":"-0.00955573","MEAN_ELEMENT_THEORY":"SGP4","PERIAPSIS":"485.670","SITE":"AFETR","RA_OF_ASC_NODE":"312.3806","MEAN_MOTION":"15.26287868","ARG_OF_PERICENTER":"41.1360","TLE_LINE1":"1 54068U 22136T   22333.91667824 -.00955573  00000-0 -39316-1 0  9992","TLE_LINE2":"2 54068  53.2170 312.3806 0001825  41.1360 168.9052 15.26287868  1305","GP_ID":"219113935","REV_AT_EPOCH":"130","PERIOD":"94.347","OBJECT_NAME":"STARLINK-5222","ELEMENT_SET_NO":"999","CENTER_NAME":"EARTH","SEMIMAJOR_AXIS":"6865.058","MEAN_ANOMALY":"168.9052","EPHEMERIS_TYPE":"0","OBJECT_TYPE":"PAYLOAD","BSTAR":"-0.03931600000000","CLASSIFICATION_TYPE":"U","DECAY_DATE":null,"ECCENTRICITY":"0.00018250","TIME_SYSTEM":"UTC","FILE":"3673849","NORAD_CAT_ID":"54068"},{"SITE":"AFETR","PERIAPSIS":"481.458","ARG_OF_PERICENTER":"44.7265","MEAN_MOTION":"15.27717832","RA_OF_ASC_NODE":"312.2849","TLE_LINE2":"2 54069  53.2169 312.2849 0001721  44.7265 213.8080 15.27717832  1309","GP_ID":"219113762","TLE_LINE1":"1 54069U 22136U   22333.91667824 -.01236829  00000-0 -49105-1 0  9997","REV_AT_EPOCH":"130","REF_FRAME":"TEME","RCS_SIZE":"LARGE","INCLINATION":"53.2169","MEAN_MOTION_DDOT":"0.0000000000000","LAUNCH_DATE":"2022-10-20","COUNTRY_CODE":"US","APOAPSIS":"483.819","EPOCH":"2022-11-29T22:00:00.999936","MEAN_MOTION_DOT":"-0.01236829","MEAN_ELEMENT_THEORY":"SGP4","OBJECT_ID":"2022-136U","OBJECT_TYPE":"PAYLOAD","BSTAR":"-0.04910500000000","CLASSIFICATION_TYPE":"U","ECCENTRICITY":"0.00017210","DECAY_DATE":null,"FILE":"3673849","NORAD_CAT_ID":"54069","TIME_SYSTEM":"UTC","OBJECT_NAME":"STARLINK-5223","PERIOD":"94.258","CENTER_NAME":"EARTH","ELEMENT_SET_NO":"999","SEMIMAJOR_AXIS":"6860.773","MEAN_ANOMALY":"213.8080","EPHEMERIS_TYPE":"0"}];
